ONEWEB-0029             
1 45445U 20020X   25349.14176327 -.00000408  00000+0 -11870-2 0  9992
2 45445  87.8864  57.7117 0001865 101.9130 258.2207 13.11416625278539
ONEWEB-0068             
1 45446U 20020Y   25349.27812791  .00000179  00000+0  46839-3 0  9996
2 45446  87.8865  57.6737 0001930 102.3081 257.8263 13.11416121278494
ONEWEB-0046             
1 45447U 20020Z   25349.19349665  .00000446  00000+0  12218-2 0  9993
2 45447  87.8862  57.6982 0001860 110.0517 250.0811 13.11414015278490
ONEWEB-0063             
1 45448U 20020AA  25349.14601230 -.00000452  00000+0 -13106-2 0  9994
2 45448  87.8864  57.7057 0001683 111.2863 248.8445 13.11419095278577
ONEWEB-0019             
1 45449U 20020AB  25349.26709460  .00000472  00000+0  12861-2 0  9999
2 45449  87.8850  57.6881 0001719  98.1831 261.9493 13.11990800278437
ONEWEB-0094             
1 45450U 20020AC  25349.20959045  .00000071  00000+0  14893-3 0  9994
2 45450  87.9118  42.4166 0001891  96.4969 263.6378 13.17647393282088
ONEWEB-0087             
1 45451U 20020AD  25349.15604215 -.00000385  00000+0 -11218-2 0  9992
2 45451  87.8875  57.6623 0002021 101.0362 259.0994 13.11416516278465
ONEWEB-0082             
1 45452U 20020AE  25349.15277703 -.00000547  00000+0 -15805-2 0  9997
2 45452  87.8876  57.6880 0002001 100.3126 259.8228 13.11416090278555
ONEWEB-0050             
1 45453U 20020AF  25349.26014413  .00002403  00000+0  24983-3 0  9996
2 45453  88.9235 258.2995 0000718 330.4775  29.6413 14.89569440312992
ONEWEB-0034             
1 45454U 20020AG  25349.17399124  .00000352  00000+0  95711-3 0  9990
2 45454  87.8861  57.6975 0001750 101.5822 258.5503 13.11417350278475
ONEWEB-0060             
1 45455U 20020AH  25349.14515102 -.00000493  00000+0 -14264-2 0  9995
2 45455  87.8851  57.7208 0002794  95.1949 264.9498 13.11417194278427
ONEWEB-0086             
1 45456U 20020AJ  25349.20027356  .00000209  00000+0  55442-3 0  9999
2 45456  87.8863  57.6893 0002181  83.9749 276.1627 13.11415810278492
ONEWEB-0088             
1 45457U 20020AK  25349.17822711  .00000457  00000+0  12544-2 0  9994
2 45457  87.8875  57.6493 0001837 111.2873 248.8452 13.11413233278424
ONEWEB-0102             
1 47258U 20100A   25349.17423108  .00000932  00000+0  25507-2 0  9992
2 47258  87.8933  27.2385 0001681  93.1008 267.0313 13.12549012240590
ONEWEB-0109             
1 47259U 20100B   25349.33491349  .00000457  00000+0  12351-2 0  9998
2 47259  87.8939  27.1753 0001674  94.3161 265.8159 13.12503176240449
ONEWEB-0110             
1 47260U 20100C   25349.36128822 -.00000713  00000+0 -20196-2 0  9999
2 47260  87.8939  27.1540 0001951  90.5406 269.5946 13.12352548240612
ONEWEB-0111             
1 47261U 20100D   25349.39198680  .00000059  00000+0  12739-3 0  9998
2 47261  87.8943  27.1661 0001722  95.5813 264.5512 13.12394955240459
ONEWEB-0114             
1 47262U 20100E   25349.34646336  .00000194  00000+0  50371-3 0  9994
2 47262  87.8942  27.1699 0001412  97.3595 262.7694 13.12436204240403
ONEWEB-0117             
1 47263U 20100F   25349.33820781  .00000396  00000+0  10645-2 0  9995
2 47263  87.8938  27.1684 0001794  96.2490 263.8843 13.12483471240415
ONEWEB-0118             
1 47264U 20100G   25349.37119755 -.00000468  00000+0 -13389-2 0  9992
2 47264  87.8942  27.1620 0001538 106.3503 253.7795 13.12294975240610
ONEWEB-0119             
1 47265U 20100H   25349.16929242  .00001177  00000+0  32295-2 0  9993
2 47265  87.8934  27.2360 0001762  93.9805 266.1525 13.12576188240561
ONEWEB-0120             
1 47266U 20100J   25349.34494269  .00000288  00000+0  76403-3 0  9992
2 47266  87.8931  27.2021 0001690  97.9167 262.2153 13.12448781240615
ONEWEB-0121             
1 47267U 20100K   25349.33328788  .00000639  00000+0  17399-2 0  9992
2 47267  87.8941  27.1733 0001922  93.2984 266.8365 13.12512302240526
ONEWEB-0122             
1 47268U 20100L   25349.17572985  .00000451  00000+0  12158-2 0  9995
2 47268  87.8941  27.2069 0001700  93.1163 267.0160 13.12538495240417
ONEWEB-0123             
1 47269U 20100M   25349.17091670  .00000372  00000+0  99552-3 0  9999
2 47269  87.8932  27.2342 0001727 100.7007 259.4317 13.12571087240551
ONEWEB-0124             
1 47270U 20100N   25349.38869957  .00000044  00000+0  87963-4 0  9995
2 47270  87.8932  27.1952 0001930  98.6376 261.4972 13.12414886240462
ONEWEB-0125             
1 47271U 20100P   25349.36623535 -.00000601  00000+0 -17100-2 0  9999
2 47271  87.8941  27.1633 0001921 104.2802 255.8540 13.12325346240524
ONEWEB-0126             
1 47272U 20100Q   25349.15847357 -.00000002  00000+0 -40224-4 0  9997
2 47272  87.8942  27.2278 0001636  96.5581 263.5734 13.12425293240569
ONEWEB-0127             
1 47273U 20100R   25349.35304941 -.00000081  00000+0 -25977-3 0  9991
2 47273  87.8933  27.1991 0001636  94.3145 265.8171 13.12401383240613
ONEWEB-0128             
1 47274U 20100S   25349.37552075  .00000954  00000+0  26154-2 0  9991
2 47274  87.8935  27.2116 0001830  88.9154 271.2185 13.12483424240635
ONEWEB-0129             
1 47275U 20100T   25349.35469386 -.00000119  00000+0 -36673-3 0  9995
2 47275  87.8942  27.1696 0000764  68.0261 292.0949 13.12387815240567
ONEWEB-0130             
1 47276U 20100U   25349.38209999 -.00000190  00000+0 -56419-3 0  9990
2 47276  87.8939  27.1591 0001724  92.8410 267.2916 13.12451724240532
ONEWEB-0131             
1 47277U 20100V   25349.37879478 -.00000335  00000+0 -96630-3 0  9995
2 47277  87.8941  27.1901 0001794  95.8898 264.2435 13.12472458240575
ONEWEB-0132             
1 47278U 20100W   25349.17917322  .00000663  00000+0  18045-2 0  9990
2 47278  87.8940  27.2314 0001818  95.1649 264.9687 13.12521646240444
ONEWEB-0133             
1 47279U 20100X   25349.34796768  .00000105  00000+0  25609-3 0  9995
2 47279  87.8935  27.1594 0001870  93.1459 266.9883 13.12429552240626
ONEWEB-0134             
1 47280U 20100Y   25349.16492008 -.00000140  00000+0 -42385-3 0  9998
2 47280  87.8940  27.1912 0001723  87.6272 272.5054 13.12386015240579
ONEWEB-0135             
1 47281U 20100Z   25349.36459615 -.00000478  00000+0 -13656-2 0  9990
2 47281  87.8935  27.1908 0001913  85.4376 274.6971 13.12333551240625
ONEWEB-0136             
1 47282U 20100AA  25349.38374210 -.00000123  00000+0 -37685-3 0  9996
2 47282  87.8941  27.1568 0001652  83.0271 277.1045 13.12445487240557
ONEWEB-0137             
1 47283U 20100AB  25349.34153396  .00001507  00000+0  41532-2 0  9993
2 47283  87.8944  27.1709 0001638 100.5598 259.5716 13.12459047240454
ONEWEB-0138             
1 47284U 20100AC  25349.16761737  .00000305  00000+0  81012-3 0  9991
2 47284  87.8941  27.2141 0001682  91.6223 268.5099 13.12589788240514
ONEWEB-0139             
1 47285U 20100AD  25349.35980469 -.00000280  00000+0 -81416-3 0  9990
2 47285  87.8938  27.1655 0001770  96.5246 263.6084 13.12363036240614
ONEWEB-0140             
1 47286U 20100AE  25349.39033809 -.00000121  00000+0 -37226-3 0  9996
2 47286  87.8941  27.1463 0001711  92.2674 267.8650 13.12404741240589
ONEWEB-0141             
1 47287U 20100AF  25349.35951011 -.00000648  00000+0 -18375-2 0  9994
2 47287  87.8932  27.1614 0001578 106.4166 253.7136 13.12362293240569
ONEWEB-0142             
1 47288U 20100AG  25349.34827508  .00000423  00000+0  11394-2 0  9990
2 47288  87.8939  27.1869 0001385 100.8029 259.3256 13.12428191240555
ONEWEB-0143             
1 47289U 20100AH  25349.35799445 -.00000172  00000+0 -51393-3 0  9997
2 47289  87.8937  27.1807 0001770  98.3897 261.7432 13.12371365240539
ONEWEB-0144             
1 47290U 20100AJ  25349.17752418  .00000703  00000+0  19163-2 0  9994
2 47290  87.8936  27.1853 0001486  88.3431 271.7867 13.12531365240438
ONEWEB-0145             
1 47291U 20100AK  25349.37714596 -.00000315  00000+0 -90977-3 0  9996
2 47291  87.8941  27.1842 0001676  96.1463 263.9857 13.12482155240654
ONEWEB-0146             
1 47292U 20100AL  25349.37387130 -.00000184  00000+0 -54507-3 0  9990
2 47292  87.8941  27.1712 0002122  97.7894 262.3475 13.12500200240564
ONEWEB-0147             
1 47293U 20100AM  25349.33986935  .00000366  00000+0  98278-3 0  9998
2 47293  87.8941  27.1562 0001798  87.1186 273.0148 13.12473435240456
ONEWEB-0115             
1 48042U 21025A   25349.28299368 -.00000279  00000+0 -79817-3 0  9992
2 48042  87.8985 356.7670 0001813  91.7845 268.3492 13.13471521229450
ONEWEB-0152             
1 48043U 21025B   25349.06801658 -.00000461  00000+0 -12969-2 0  9997
2 48043  87.8986 356.8175 0001831  84.4538 275.6800 13.13466402229389
ONEWEB-0153             
1 48044U 21025C   25349.27453637 -.00000134  00000+0 -40266-3 0  9990
2 48044  87.8981 356.7808 0001713  91.5544 268.5782 13.13471199229404
ONEWEB-0154             
1 48045U 21025D   25349.27114643 -.00000067  00000+0 -21918-3 0  9990
2 48045  87.8980 356.7778 0001793  88.5749 271.5586 13.13471655229369
ONEWEB-0116             
1 48046U 21025E   25349.31007984  .00000184  00000+0  46990-3 0  9990
2 48046  87.8986 356.7546 0001901  90.8734 269.2613 13.13472713229518
ONEWEB-0150             
1 48047U 21025F   25349.28637493 -.00000489  00000+0 -13752-2 0  9990
2 48047  87.8987 356.7551 0001665  96.6097 263.5222 13.13470397229406
ONEWEB-0107             
1 48048U 21025G   25349.28807634 -.00000307  00000+0 -87572-3 0  9998
2 48048  87.8983 356.7512 0001493  88.9594 271.1706 13.13471226229386
ONEWEB-0101             
1 48049U 21025H   25349.02229541  .00000358  00000+0  94597-3 0  9995
2 48049  87.8977 356.8372 0001679  85.7681 274.3640 13.13471501229325
ONEWEB-0113             
1 48050U 21025J   25349.26616142  .00000032  00000+0  53455-4 0  9998
2 48050  87.8984 356.7173 0001900  96.7917 263.3429 13.13985086229459
ONEWEB-0112             
1 48051U 21025K   25349.29314841 -.00000272  00000+0 -77947-3 0  9992
2 48051  87.8988 356.7475 0001697  92.9028 267.2295 13.13471794229453
